start=new Date('2023-03-18T00:00:00.000Z').valueOf();
sats=[{"OBJECT_NAME":"STARLINK-1991","EPHEMERIS_TYPE":"0","DECAY_DATE":null,"COUNTRY_CODE":"US","SITE":"AFETR","TLE_LINE1":"1 47587U 21009AR  23076.78109156  .00005475  00000-0  38648-3 0  9991","REV_AT_EPOCH":"11696","OBJECT_ID":"2021-009AR","ARG_OF_PERICENTER":"71.8140","RA_OF_ASC_NODE":"215.4292","PERIAPSIS":"546.595","SEMIMAJOR_AXIS":"6925.438","ELEMENT_SET_NO":"999","EPOCH":"2023-03-17T18:44:46.310784","MEAN_MOTION":"15.06370849","CLASSIFICATION_TYPE":"U","TIME_SYSTEM":"UTC","LAUNCH_DATE":"2021-02-04","GP_ID":"228353922","BSTAR":"0.00038648000000","CENTER_NAME":"EARTH","ECCENTRICITY":"0.00010220","PERIOD":"95.594","FILE":"3863544","OBJECT_TYPE":"PAYLOAD","MEAN_ANOMALY":"288.2960","APOAPSIS":"548.011","RCS_SIZE":"LARGE","NORAD_CAT_ID":"47587","TLE_LINE2":"2 47587  53.0503 215.4292 0001022  71.8140 288.2960 15.06370849116961","INCLINATION":"53.0503","REF_FRAME":"TEME","MEAN_MOTION_DOT":"0.00005475","MEAN_ELEMENT_THEORY":"SGP4","MEAN_MOTION_DDOT":"0.0000000000000"},{"RA_OF_ASC_NODE":"225.1692","ARG_OF_PERICENTER":"48.9124","PERIAPSIS":"546.528","ELEMENT_SET_NO":"999","SEMIMAJOR_AXIS":"6925.404","EPOCH":"2023-03-17T20:08:22.815744","EPHEMERIS_TYPE":"0","DECAY_DATE":null,"COUNTRY_CODE":"US","OBJECT_NAME":"STARLINK-1993","TLE_LINE1":"1 47588U 21009AS  23076.83915296  .00004300  00000-0  30752-3 0  9992","SITE":"AFETR","OBJECT_ID":"2021-009AS","REV_AT_EPOCH":"11683","APOAPSIS":"548.010","MEAN_ANOMALY":"311.1958","RCS_SIZE":"LARGE","INCLINATION":"53.0536","TLE_LINE2":"2 47588  53.0536 225.1692 0001070  48.9124 311.1958 15.06381990116838","NORAD_CAT_ID":"47588","MEAN_ELEMENT_THEORY":"SGP4","MEAN_MOTION_DDOT":"0.0000000000000","MEAN_MOTION_DOT":"0.00004300","REF_FRAME":"TEME","LAUNCH_DATE":"2021-02-04","GP_ID":"228355173","CLASSIFICATION_TYPE":"U","TIME_SYSTEM":"UTC","MEAN_MOTION":"15.06381990","PERIOD":"95.593","ECCENTRICITY":"0.00010700","CENTER_NAME":"EARTH","BSTAR":"0.00030752000000","FILE":"3863544","OBJECT_TYPE":"PAYLOAD"},{"TIME_SYSTEM":"UTC","CLASSIFICATION_TYPE":"U","MEAN_MOTION":"15.06377119","LAUNCH_DATE":"2021-02-04","GP_ID":"228322872","BSTAR":"-0.00057162000000","CENTER_NAME":"EARTH","PERIOD":"95.594","ECCENTRICITY":"0.00009730","FILE":"3863278","OBJECT_TYPE":"PAYLOAD","MEAN_ANOMALY":"246.8573","APOAPSIS":"547.958","RCS_SIZE":"LARGE","TLE_LINE2":"2 47589  53.0534 226.8751 0000973 113.2519 246.8573 15.06377119116774","NORAD_CAT_ID":"47589","INCLINATION":"53.0534","REF_FRAME":"TEME","MEAN_MOTION_DOT":"-0.00008780","MEAN_MOTION_DDOT":"0.0000000000000","MEAN_ELEMENT_THEORY":"SGP4","OBJECT_NAME":"STARLINK-1994","COUNTRY_CODE":"US","DECAY_DATE":null,"EPHEMERIS_TYPE":"0","SITE":"AFETR","TLE_LINE1":"1 47589U 21009AT  23076.45949745 -.00008780  00000-0 -57162-3 0  9999","REV_AT_EPOCH":"11677","OBJECT_ID":"2021-009AT","ARG_OF_PERICENTER":"113.2519","RA_OF_ASC_NODE":"226.8751","PERIAPSIS":"546.610","SEMIMAJOR_AXIS":"6925.419","ELEMENT_SET_NO":"999","EPOCH":"2023-03-17T11:01:40.579680"},{"OBJECT_TYPE":"PAYLOAD","FILE":"3863544","BSTAR":"0.00137870000000","ECCENTRICITY":"0.00006900","PERIOD":"95.593","CENTER_NAME":"EARTH","CLASSIFICATION_TYPE":"U","MEAN_MOTION":"15.06380853","TIME_SYSTEM":"UTC","GP_ID":"228353672","LAUNCH_DATE":"2021-02-04","MEAN_MOTION_DOT":"0.00020303","REF_FRAME":"TEME","MEAN_MOTION_DDOT":"0.0000000000000","MEAN_ELEMENT_THEORY":"SGP4","NORAD_CAT_ID":"47590","TLE_LINE2":"2 47590  53.0502 245.1294 0000690  77.6786 282.4280 15.06380853116558","INCLINATION":"53.0502","RCS_SIZE":"LARGE","MEAN_ANOMALY":"282.4280","APOAPSIS":"547.750","OBJECT_ID":"2021-009AU","REV_AT_EPOCH":"11655","SITE":"AFETR","TLE_LINE1":"1 47590U 21009AU  23076.84836024  .00020303  00000-0  13787-2 0  9996","OBJECT_NAME":"STARLINK-1995","COUNTRY_CODE":"US","DECAY_DATE":null,"EPHEMERIS_TYPE":"0","EPOCH":"2023-03-17T20:21:38.324736","SEMIMAJOR_AXIS":"6925.407","ELEMENT_SET_NO":"999","PERIAPSIS":"546.794","RA_OF_ASC_NODE":"245.1294","ARG_OF_PERICENTER":"77.6786"},{"PERIOD":"95.594","ECCENTRICITY":"0.00010250","CENTER_NAME":"EARTH","BSTAR":"0.00114660000000","GP_ID":"228354422","LAUNCH_DATE":"2021-02-04","CLASSIFICATION_TYPE":"U","TIME_SYSTEM":"UTC","MEAN_MOTION":"15.06370341","OBJECT_TYPE":"PAYLOAD","FILE":"3863544","RCS_SIZE":"LARGE","APOAPSIS":"548.014","MEAN_ANOMALY":"259.7671","MEAN_MOTION_DDOT":"0.0000000000000","MEAN_ELEMENT_THEORY":"SGP4","MEAN_MOTION_DOT":"0.00016825","REF_FRAME":"TEME","INCLINATION":"53.0514","NORAD_CAT_ID":"47591","TLE_LINE2":"2 47591  53.0514 225.4009 0001025 100.3433 259.7671 15.06370341116825","COUNTRY_CODE":"US","DECAY_DATE":null,"EPHEMERIS_TYPE":"0","OBJECT_NAME":"STARLINK-1996","OBJECT_ID":"2021-009AV","REV_AT_EPOCH":"11682","TLE_LINE1":"1 47591U 21009AV  23076.78755181  .00016825  00000-0  11466-2 0  9990","SITE":"AFETR","PERIAPSIS":"546.595","RA_OF_ASC_NODE":"225.4009","ARG_OF_PERICENTER":"100.3433","EPOCH":"2023-03-17T18:54:04.476384","ELEMENT_SET_NO":"999","SEMIMAJOR_AXIS":"6925.439"},{"OBJECT_NAME":"STARLINK-1997","DECAY_DATE":null,"EPHEMERIS_TYPE":"0","COUNTRY_CODE":"US","REV_AT_EPOCH":"11655","OBJECT_ID":"2021-009AW","SITE":"AFETR","TLE_LINE1":"1 47592U 21009AW  23076.88522675 -.00000890  00000-0 -40887-4 0  9990","PERIAPSIS":"546.335","ARG_OF_PERICENTER":"96.3160","RA_OF_ASC_NODE":"244.9587","EPOCH":"2023-03-17T21:14:43.591200","SEMIMAJOR_AXIS":"6925.376","ELEMENT_SET_NO":"999","BSTAR":"-0.00004088700000","CENTER_NAME":"EARTH","ECCENTRICITY":"0.00013070","PERIOD":"95.593","CLASSIFICATION_TYPE":"U","TIME_SYSTEM":"UTC","MEAN_MOTION":"15.06391195","LAUNCH_DATE":"2021-02-04","GP_ID":"228354674","OBJECT_TYPE":"PAYLOAD","FILE":"3863544","RCS_SIZE":"LARGE","MEAN_ANOMALY":"263.7978","APOAPSIS":"548.146","REF_FRAME":"TEME","MEAN_MOTION_DOT":"-0.00000890","MEAN_ELEMENT_THEORY":"SGP4","MEAN_MOTION_DDOT":"0.0000000000000","NORAD_CAT_ID":"47592","TLE_LINE2":"2 47592  53.0532 244.9587 0001307  96.3160 263.7978 15.06391195116552","INCLINATION":"53.0532"},{"MEAN_MOTION":"15.06363874","CLASSIFICATION_TYPE":"U","TIME_SYSTEM":"UTC","LAUNCH_DATE":"2021-02-04","GP_ID":"228354924","BSTAR":"0.00143650000000","PERIOD":"95.594","ECCENTRICITY":"0.00014370","CENTER_NAME":"EARTH","FILE":"3863544","OBJECT_TYPE":"PAYLOAD","MEAN_ANOMALY":"287.4711","APOAPSIS":"548.319","RCS_SIZE":"LARGE","NORAD_CAT_ID":"47593","TLE_LINE2":"2 47593  53.0521 245.0934 0001437  72.6435 287.4711 15.06363874116556","INCLINATION":"53.0521","MEAN_MOTION_DOT":"0.00021159","REF_FRAME":"TEME","MEAN_MOTION_DDOT":"0.0000000000000","MEAN_ELEMENT_THEORY":"SGP4","OBJECT_NAME":"STARLINK-1998","COUNTRY_CODE":"US","DECAY_DATE":null,"EPHEMERIS_TYPE":"0","SITE":"AFETR","TLE_LINE1":"1 47593U 21009AX  23076.85573166  .00021159  00000-0  14365-2 0  9998","OBJECT_ID":"2021-009AX","REV_AT_EPOCH":"11655","RA_OF_ASC_NODE":"245.0934","ARG_OF_PERICENTER":"72.6435","PERIAPSIS":"546.329","SEMIMAJOR_AXIS":"6925.459","ELEMENT_SET_NO":"999","EPOCH":"2023-03-17T20:32:15.215424"},{"REF_FRAME":"TEME","MEAN_MOTION_DOT":"0.00017821","MEAN_MOTION_DDOT":"0.0000000000000","MEAN_ELEMENT_THEORY":"SGP4","NORAD_CAT_ID":"47594","TLE_LINE2":"2 47594  53.0539 245.5369 0000469  60.0750 300.0286 15.06376348116535","INCLINATION":"53.0539","RCS_SIZE":"LARGE","MEAN_ANOMALY":"300.0286","APOAPSIS":"547.611","OBJECT_TYPE":"PAYLOAD","FILE":"3863544","BSTAR":"0.00121300000000","CENTER_NAME":"EARTH","ECCENTRICITY":"0.00004690","PERIOD":"95.594","CLASSIFICATION_TYPE":"U","MEAN_MOTION":"15.06376348","TIME_SYSTEM":"UTC","GP_ID":"228354172","LAUNCH_DATE":"2021-02-04","EPOCH":"2023-03-17T18:08:56.493024","SEMIMAJOR_AXIS":"6925.421","ELEMENT_SET_NO":"999","PERIAPSIS":"546.961","ARG_OF_PERICENTER":"60.0750","RA_OF_ASC_NODE":"245.5369","REV_AT_EPOCH":"11653","OBJECT_ID":"2021-009AY","SITE":"AFETR","TLE_LINE1":"1 47594U 21009AY  23076.75620941  .00017821  00000-0  12130-2 0  9991","OBJECT_NAME":"STARLINK-1999","DECAY_DATE":null,"COUNTRY_CODE":"US","EPHEMERIS_TYPE":"0"},{"TLE_LINE1":"1 47595U 21009AZ  23076.87416474  .00001196  00000-0  99181-4 0  9990","SITE":"AFETR","REV_AT_EPOCH":"11655","OBJECT_ID":"2021-009AZ","COUNTRY_CODE":"US","DECAY_DATE":null,"EPHEMERIS_TYPE":"0","OBJECT_NAME":"STARLINK-2000","ELEMENT_SET_NO":"999","SEMIMAJOR_AXIS":"6925.355","EPOCH":"2023-03-17T20:58:47.833536","ARG_OF_PERICENTER":"109.0629","RA_OF_ASC_NODE":"245.0126","PERIAPSIS":"546.404","FILE":"3863544","OBJECT_TYPE":"PAYLOAD","LAUNCH_DATE":"2021-02-04","GP_ID":"228353923","MEAN_MOTION":"15.06397866","CLASSIFICATION_TYPE":"U","TIME_SYSTEM":"UTC","CENTER_NAME":"EARTH","PERIOD":"95.592","ECCENTRICITY":"0.00011790","BSTAR":"0.00009918100000","INCLINATION":"53.0520","NORAD_CAT_ID":"47595","TLE_LINE2":"2 47595  53.0520 245.0126 0001179 109.0629 251.0488 15.06397866116559","MEAN_MOTION_DDOT":"0.0000000000000","MEAN_ELEMENT_THEORY":"SGP4","REF_FRAME":"TEME","MEAN_MOTION_DOT":"0.00001196","APOAPSIS":"548.037","MEAN_ANOMALY":"251.0488","RCS_SIZE":"LARGE"},{"RA_OF_ASC_NODE":"244.9944","ARG_OF_PERICENTER":"89.7131","PERIAPSIS":"546.551","SEMIMAJOR_AXIS":"6925.390","ELEMENT_SET_NO":"999","EPOCH":"2023-03-17T21:04:05.107296","OBJECT_NAME":"STARLINK-2001","EPHEMERIS_TYPE":"0","DECAY_DATE":null,"COUNTRY_CODE":"US","SITE":"AFETR","TLE_LINE1":"1 47596U 21009BA  23076.87783689  .00000896  00000-0  79085-4 0  9993","OBJECT_ID":"2021-009BA","REV_AT_EPOCH":"11655","MEAN_ANOMALY":"270.3975","APOAPSIS":"547.959","RCS_SIZE":"LARGE","TLE_LINE2":"2 47596  53.0518 244.9944 0001017  89.7131 270.3975 15.06386461116550","NORAD_CAT_ID":"47596","INCLINATION":"53.0518","MEAN_MOTION_DOT":"0.00000896","REF_FRAME":"TEME","MEAN_MOTION_DDOT":"0.0000000000000","MEAN_ELEMENT_THEORY":"SGP4","TIME_SYSTEM":"UTC","CLASSIFICATION_TYPE":"U","MEAN_MOTION":"15.06386461","GP_ID":"228355174","LAUNCH_DATE":"2021-02-04","BSTAR":"0.00007908500000","PERIOD":"95.593","ECCENTRICITY":"0.00010170","CENTER_NAME":"EARTH","FILE":"3863544","OBJECT_TYPE":"PAYLOAD"}];
